{
    "links": {
        "self": "http://www.neowsapp.com/rest/v1/neo/3989268?api_key=iIulBulltgU6a56xZRHN4H3l9WmuAYTsLGpBGhQ2"
    },
    "id": "3989268",
    "neo_reference_id": "3989268",
    "name": "(2020 BY11)",
    "designation": "2020 BY11",
    "nasa_jpl_url": "http://ssd.jpl.nasa.gov/sbdb.cgi?sstr=3989268",
    "absolute_magnitude_h": 27.931,
    "estimated_diameter": {
        "kilometers": {
            "estimated_diameter_min": 0.0068921541,
            "estimated_diameter_max": 0.015411325
        },
        "meters": {
            "estimated_diameter_min": 6.8921540593,
            "estimated_diameter_max": 15.4113249881
        },
        "miles": {
            "estimated_diameter_min": 0.0042825847,
            "estimated_diameter_max": 0.0095761504
        },
        "feet": {
            "estimated_diameter_min": 22.612054724,
            "estimated_diameter_max": 50.5620914738
        }
    },
    "is_potentially_hazardous_asteroid": false,
    "close_approach_data": [
        {
            "close_approach_date": "1949-01-28",
            "close_approach_date_full": "1949-Jan-28 15:16",
            "epoch_date_close_approach": -660300240000,
            "relative_velocity": {
                "kilometers_per_second": "14.5264836591",
                "kilometers_per_hour": "52295.3411729371",
                "miles_per_hour": "32494.2912971508"
            },
            "miss_distance": {
                "astronomical": "0.0667038988",
                "lunar": "25.9478166332",
                "kilometers": "9978761.181175556",
                "miles": "6200514.6762964328"
            },
            "orbiting_body": "Earth"
        },
        {
            "close_approach_date": "2020-01-22",
            "close_approach_date_full": "2020-Jan-22 22:53",
            "epoch_date_close_approach": 1579733580000,
            "relative_velocity": {
                "kilometers_per_second": "13.1286446226",
                "kilometers_per_hour": "47263.1206414273",
                "miles_per_hour": "29367.4651563358"
            },
            "miss_distance": {
                "astronomical": "0.0037214674",
                "lunar": "1.4476508186",
                "kilometers": "556723.596314438",
                "miles": "345932.0016697244"
            },
            "orbiting_body": "Moon"
        },
        {
            "close_approach_date": "2020-01-23",
            "close_approach_date_full": "2020-Jan-23 05:39",
            "epoch_date_close_approach": 1579757940000,
            "relative_velocity": {
                "kilometers_per_second": "12.3818264909",
                "kilometers_per_hour": "44574.5753673898",
                "miles_per_hour": "27696.9076775873"
            },
            "miss_distance": {
                "astronomical": "0.0051749561",
                "lunar": "2.0130579229",
                "kilometers": "774162.409903507",
                "miles": "481042.2152901166"
            },
            "orbiting_body": "Earth"
        }
    ],
    "orbital_data": {
        "orbit_id": "4",
        "orbit_determination_date": "2020-02-13 05:13:11",
        "first_observation_date": "2020-01-26",
        "last_observation_date": "2020-02-02",
        "data_arc_in_days": 7,
        "observations_used": 29,
        "orbit_uncertainty": "8",
        "minimum_orbit_intersection": ".00210205",
        "jupiter_tisserand_invariant": "3.693",
        "epoch_osculation": "2458879.5",
        "eccentricity": ".5658004487377014",
        "semi_major_axis": "1.935868569687345",
        "inclination": "1.78953446826223",
        "ascending_node_longitude": "306.7959662424302",
        "orbital_period": "983.8122593724623",
        "perihelion_distance": ".8405532642610332",
        "perihelion_argument": "122.7000631372331",
        "aphelion_distance": "3.031183875113658",
        "perihelion_time": "2458834.722503239861",
        "mean_anomaly": "16.38513718454",
        "mean_motion": ".3659234742913559",
        "equinox": "J2000",
        "orbit_class": {
            "orbit_class_type": "APO",
            "orbit_class_description": "Near-Earth asteroid orbits which cross the Earth’s orbit similar to that of 1862 Apollo",
            "orbit_class_range": "a (semi-major axis) > 1.0 AU; q (perihelion) < 1.017 AU"
        }
    },
    "is_sentry_object": false
}